{
  "norad_id": 59326,
  "name": "STARLINK-31632",
  "history": [
    {
      "epoch": "2026-03-28T11:39:06.634944",
      "apogee_km": 483.7420360736569,
      "perigee_km": 482.32932061918564,
      "latitude_deg": -42.09930010816293,
      "longitude_deg": 159.20737216016278,
      "semi_major_axis_km": 6861.172678346421,
      "eccentricity": 0.00010295,
      "inclination_deg": 43.0012,
      "raan_deg": 92.1688,
      "arg_perigee_deg": 267.4842,
      "mean_anomaly_deg": 92.5892,
      "mean_motion_rev_day": 15.27584481
    }
  ]
}