{"fetched_at":"2026-03-29T02:12:04Z","count":15717,"tles":[{"name":"STARLINK-31632","line1":"1 59326U 24057G   26087.48549346 -.00001841  00000+0 -57394-4 0  9996","line2":"2 59326  43.0012  92.1688 0001029 267.4842  92.5892 15.27584481112583","category":"Starlink"}]}